{{Infobox Planet  
| name = 678 Fredegundis 
| image = 
| caption = 
| discovery=yes | physical_characteristics = yes | bgcolour=#FFFFC0
| discovery_ref = 
| discoverer = W·洛伦茨
| discovery_site = [[海德堡|海德堡]]（[[天文台编号列表|024]]）
| discovered =  1909年1月22日
| mp_name = 678
| alt_names = 1909 FS
| named_after = Fredegundis
| mp_category=[[小行星带|主带小行星]]
| orbit_ref = <ref>[http://ssd.jpl.nasa.gov/sbdb.cgi?sstr=678 678 Fredegundis (1909 FS)]</ref>
| epoch = 2011年8月27日
| semimajor= 2.573500487259502AU
| perihelion=2.008733540023747AU
| aphelion= 3.138267434495257[[天文单位|AU]]
| eccentricity =0.219454766001296			
| period =1507.942595520733[[日|地球日]]<br>4.13[[年|地球年]] 
| inclination=6.082272586774467[[角度|°]]
| asc_node=281.4460052039507°
| arg_peri=120.1622487141517°
| mean_anomaly=4.063933668137752°
| avg_speed=
 | dimensions=41.80千米
 | mass=
 | density=
 | surface_grav=
 | escape_velocity=
 | rotation=11.61624小时
 | spectral_type=[[X-型小行星|X]]
 | magnitude=
 | abs_magnitude=9.02
 | albedo=0.2494
 | single_temperature=
}}
'''小行星678'''（'''678 Fredegundis'''），是由[[德国|德国]][[天文学家|天文学家]]W·洛伦茨于1909年1月22日在德国[[海德堡|海德堡]]发现的[[小行星带|主带]][[小行星|小行星]]。

小行星678以[[歌剧|歌剧]]Fredegundis命名。

== 参考资料 ==
{{Reflist}}

{{Minor Planet Number|(677)[[小行星677|小行星677]]|(679)[[小行星679|小行星679]]}}

[[Category:小行星带天体|Category:小行星带天体]]
[[Category:1909年发现的小行星|Category:1909年发现的小行星]]
[[Category:X-型小行星|Category:X-型小行星]]